[Satellite]
VERSION=1.1
NAME=EXPRESS-AMU1
NICKNAME=EXPRESS-AMU1
TLE1=1 41191U 15082A   17185.62565153  .00000150  00000-0  00000-0 0  9993
TLE2=2 41191   0.0134   4.8088 0002008  89.6601  89.6566  1.00270542  5729
